YAOGAN-47               
1 66988U 25289A   25354.09842060  .00002520  00000+0  10946-3 0  9992
2 66988  97.5265  59.2376 0000646  91.4531 268.6780 15.23243112  1668
CZ-4B R/B               
1 66989U 25289B   25360.16888373  .00123733  67414-5  57014-3 0  9990
2 66989  97.5229  66.5061 0138648 311.9288  47.0219 15.70530395  2676
TJS-22                  
1 66990U 25290A   25359.34742398  .00000015  00000+0  00000+0 0  9996
2 66990   1.9567 285.0409 0003387 343.2156  17.3747  1.00271568   282
CZ-3B R/B               
1 66991U 25290B   25349.72468800  .00057911 -20514-6  75879-3 0  9998
2 66991  28.4636 300.4666 7240884 182.7002 168.6250  2.38388611   165
2025-292A               
1 66993U 25292A   25360.10833602  .00004213  00000+0  30390-3 0  9999
2 66993  97.6492  72.5284 0014697 224.3532 135.6518 15.04594150  2407
2025-292B               
1 66994U 25292B   25360.10786012  .00004811  00000+0  34591-3 0  9993
2 66994  97.6502  72.5307 0014484 224.6876 135.3184 15.04644108  2409
2025-292C               
1 66995U 25292C   25359.24313955  .00005751  00000+0  41226-3 0  9996
2 66995  97.6495  71.6733 0014688 227.9665 132.0312 15.04668363  2273
2025-292D               
1 66996U 25292D   25359.24277807  .00003792  00000+0  27339-3 0  9994
2 66996  97.6491  71.6729 0013797 230.5158 129.4848 15.04678565  2271
2025-292E               
1 66997U 25292E   25360.17289815  .00004451  00000+0  31921-3 0  9996
2 66997  97.6509  72.5998 0014288 228.3633 131.6370 15.04778465  2409
2025-292F               
1 66998U 25292F   25360.17114721  .00005939  00000+0  42219-3 0  9994
2 66998  97.6529  72.6058 0015408 229.2623 130.7266 15.04963634  2413
2025-292G               
1 66999U 25292G   25360.17047190  .00006015  00000+0  42687-3 0  9995
2 66999  97.6538  72.6083 0014920 231.1760 128.8134 15.05027993  2416
2025-292H               
1 67000U 25292H   25360.17033395  .00007345  00000+0  51969-3 0  9991
2 67000  97.6550  72.6109 0014880 231.0797 128.9103 15.05061812  2287
