CCSDS_OMM_VERS = 2.0
CREATION_DATE  = 
ORIGINATOR     = 

OBJECT_NAME    = YAOGAN-47
OBJECT_ID      = 2025-289A
CENTER_NAME    = EARTH
REF_FRAME      = TEME
TIME_SYSTEM    = UTC
MEAN_ELEMENT_THEORY = SGP/SGP4

EPOCH          = 2025-12-20T02:21:43.539840
MEAN_MOTION    = 15.23243112
ECCENTRICITY   = .00006467
INCLINATION    = 97.5265
RA_OF_ASC_NODE = 59.2376
ARG_OF_PERICENTER = 91.4531
MEAN_ANOMALY   = 268.6780

EPHEMERIS_TYPE = 0
CLASSIFICATION_TYPE = U
NORAD_CAT_ID   = 66988
ELEMENT_SET_NO = 999
REV_AT_EPOCH   = 166
BSTAR          = .10945697E-3
MEAN_MOTION_DOT = .252E-4
MEAN_MOTION_DDOT = 0

CCSDS_OMM_VERS = 2.0
CREATION_DATE  = 
ORIGINATOR     = 

OBJECT_NAME    = CZ-4B R/B
OBJECT_ID      = 2025-289B
CENTER_NAME    = EARTH
REF_FRAME      = TEME
TIME_SYSTEM    = UTC
MEAN_ELEMENT_THEORY = SGP/SGP4

EPOCH          = 2025-12-26T04:03:11.554272
MEAN_MOTION    = 15.70530395
ECCENTRICITY   = .0138648
INCLINATION    = 97.5229
RA_OF_ASC_NODE = 66.5061
ARG_OF_PERICENTER = 311.9288
MEAN_ANOMALY   = 47.0219

EPHEMERIS_TYPE = 0
CLASSIFICATION_TYPE = U
NORAD_CAT_ID   = 66989
ELEMENT_SET_NO = 999
REV_AT_EPOCH   = 267
BSTAR          = .57014E-3
MEAN_MOTION_DOT = .123733E-2
MEAN_MOTION_DDOT = .67414E-5

CCSDS_OMM_VERS = 2.0
CREATION_DATE  = 
ORIGINATOR     = 

OBJECT_NAME    = TJS-22
OBJECT_ID      = 2025-290A
CENTER_NAME    = EARTH
REF_FRAME      = TEME
TIME_SYSTEM    = UTC
MEAN_ELEMENT_THEORY = SGP/SGP4

EPOCH          = 2025-12-25T08:20:17.431872
MEAN_MOTION    = 1.00271568
ECCENTRICITY   = .0003387
INCLINATION    = 1.9567
RA_OF_ASC_NODE = 285.0409
ARG_OF_PERICENTER = 343.2156
MEAN_ANOMALY   = 17.3747

EPHEMERIS_TYPE = 0
CLASSIFICATION_TYPE = U
NORAD_CAT_ID   = 66990
ELEMENT_SET_NO = 999
REV_AT_EPOCH   = 28
BSTAR          = 0
MEAN_MOTION_DOT = .15E-6
MEAN_MOTION_DDOT = 0

CCSDS_OMM_VERS = 2.0
CREATION_DATE  = 
ORIGINATOR     = 

OBJECT_NAME    = CZ-3B R/B
OBJECT_ID      = 2025-290B
CENTER_NAME    = EARTH
REF_FRAME      = TEME
TIME_SYSTEM    = UTC
MEAN_ELEMENT_THEORY = SGP/SGP4

EPOCH          = 2025-12-15T17:23:33.043200
MEAN_MOTION    = 2.38388611
ECCENTRICITY   = .7240884
INCLINATION    = 28.4636
RA_OF_ASC_NODE = 300.4666
ARG_OF_PERICENTER = 182.7002
MEAN_ANOMALY   = 168.6250

EPHEMERIS_TYPE = 0
CLASSIFICATION_TYPE = U
NORAD_CAT_ID   = 66991
ELEMENT_SET_NO = 999
REV_AT_EPOCH   = 16
BSTAR          = .75879E-3
MEAN_MOTION_DOT = .57911E-3
MEAN_MOTION_DDOT = -.20514E-6

CCSDS_OMM_VERS = 2.0
CREATION_DATE  = 
ORIGINATOR     = 

OBJECT_NAME    = 2025-292A
OBJECT_ID      = 2025-292A
CENTER_NAME    = EARTH
REF_FRAME      = TEME
TIME_SYSTEM    = UTC
MEAN_ELEMENT_THEORY = SGP/SGP4

EPOCH          = 2025-12-26T02:36:00.232128
MEAN_MOTION    = 15.04594150
ECCENTRICITY   = .0014697
INCLINATION    = 97.6492
RA_OF_ASC_NODE = 72.5284
ARG_OF_PERICENTER = 224.3532
MEAN_ANOMALY   = 135.6518

EPHEMERIS_TYPE = 0
CLASSIFICATION_TYPE = U
NORAD_CAT_ID   = 66993
ELEMENT_SET_NO = 999
REV_AT_EPOCH   = 240
BSTAR          = .3039E-3
MEAN_MOTION_DOT = .4213E-4
MEAN_MOTION_DDOT = 0

CCSDS_OMM_VERS = 2.0
CREATION_DATE  = 
ORIGINATOR     = 

OBJECT_NAME    = 2025-292B
OBJECT_ID      = 2025-292B
CENTER_NAME    = EARTH
REF_FRAME      = TEME
TIME_SYSTEM    = UTC
MEAN_ELEMENT_THEORY = SGP/SGP4

EPOCH          = 2025-12-26T02:35:19.114368
MEAN_MOTION    = 15.04644108
ECCENTRICITY   = .0014484
INCLINATION    = 97.6502
RA_OF_ASC_NODE = 72.5307
ARG_OF_PERICENTER = 224.6876
MEAN_ANOMALY   = 135.3184

EPHEMERIS_TYPE = 0
CLASSIFICATION_TYPE = U
NORAD_CAT_ID   = 66994
ELEMENT_SET_NO = 999
REV_AT_EPOCH   = 240
BSTAR          = .34591E-3
MEAN_MOTION_DOT = .4811E-4
MEAN_MOTION_DDOT = 0

CCSDS_OMM_VERS = 2.0
CREATION_DATE  = 
ORIGINATOR     = 

OBJECT_NAME    = 2025-292C
OBJECT_ID      = 2025-292C
CENTER_NAME    = EARTH
REF_FRAME      = TEME
TIME_SYSTEM    = UTC
MEAN_ELEMENT_THEORY = SGP/SGP4

EPOCH          = 2025-12-25T05:50:07.257120
MEAN_MOTION    = 15.04668363
ECCENTRICITY   = .0014688
INCLINATION    = 97.6495
RA_OF_ASC_NODE = 71.6733
ARG_OF_PERICENTER = 227.9665
MEAN_ANOMALY   = 132.0312

EPHEMERIS_TYPE = 0
CLASSIFICATION_TYPE = U
NORAD_CAT_ID   = 66995
ELEMENT_SET_NO = 999
REV_AT_EPOCH   = 227
BSTAR          = .41226E-3
MEAN_MOTION_DOT = .5751E-4
MEAN_MOTION_DDOT = 0

CCSDS_OMM_VERS = 2.0
CREATION_DATE  = 
ORIGINATOR     = 

OBJECT_NAME    = 2025-292D
OBJECT_ID      = 2025-292D
CENTER_NAME    = EARTH
REF_FRAME      = TEME
TIME_SYSTEM    = UTC
MEAN_ELEMENT_THEORY = SGP/SGP4

EPOCH          = 2025-12-25T05:49:36.025248
MEAN_MOTION    = 15.04678565
ECCENTRICITY   = .0013797
INCLINATION    = 97.6491
RA_OF_ASC_NODE = 71.6729
ARG_OF_PERICENTER = 230.5158
MEAN_ANOMALY   = 129.4848

EPHEMERIS_TYPE = 0
CLASSIFICATION_TYPE = U
NORAD_CAT_ID   = 66996
ELEMENT_SET_NO = 999
REV_AT_EPOCH   = 227
BSTAR          = .27339E-3
MEAN_MOTION_DOT = .3792E-4
MEAN_MOTION_DDOT = 0

CCSDS_OMM_VERS = 2.0
CREATION_DATE  = 
ORIGINATOR     = 

OBJECT_NAME    = 2025-292E
OBJECT_ID      = 2025-292E
CENTER_NAME    = EARTH
REF_FRAME      = TEME
TIME_SYSTEM    = UTC
MEAN_ELEMENT_THEORY = SGP/SGP4

EPOCH          = 2025-12-26T04:08:58.400160
MEAN_MOTION    = 15.04778465
ECCENTRICITY   = .0014288
INCLINATION    = 97.6509
RA_OF_ASC_NODE = 72.5998
ARG_OF_PERICENTER = 228.3633
MEAN_ANOMALY   = 131.6370

EPHEMERIS_TYPE = 0
CLASSIFICATION_TYPE = U
NORAD_CAT_ID   = 66997
ELEMENT_SET_NO = 999
REV_AT_EPOCH   = 240
BSTAR          = .31921E-3
MEAN_MOTION_DOT = .4451E-4
MEAN_MOTION_DDOT = 0

CCSDS_OMM_VERS = 2.0
CREATION_DATE  = 
ORIGINATOR     = 

OBJECT_NAME    = 2025-292F
OBJECT_ID      = 2025-292F
CENTER_NAME    = EARTH
REF_FRAME      = TEME
TIME_SYSTEM    = UTC
MEAN_ELEMENT_THEORY = SGP/SGP4

EPOCH          = 2025-12-26T04:06:27.118944
MEAN_MOTION    = 15.04963634
ECCENTRICITY   = .0015408
INCLINATION    = 97.6529
RA_OF_ASC_NODE = 72.6058
ARG_OF_PERICENTER = 229.2623
MEAN_ANOMALY   = 130.7266

EPHEMERIS_TYPE = 0
CLASSIFICATION_TYPE = U
NORAD_CAT_ID   = 66998
ELEMENT_SET_NO = 999
REV_AT_EPOCH   = 241
BSTAR          = .42219E-3
MEAN_MOTION_DOT = .5939E-4
MEAN_MOTION_DDOT = 0

CCSDS_OMM_VERS = 2.0
CREATION_DATE  = 
ORIGINATOR     = 

OBJECT_NAME    = 2025-292G
OBJECT_ID      = 2025-292G
CENTER_NAME    = EARTH
REF_FRAME      = TEME
TIME_SYSTEM    = UTC
MEAN_ELEMENT_THEORY = SGP/SGP4

EPOCH          = 2025-12-26T04:05:28.772160
MEAN_MOTION    = 15.05027993
ECCENTRICITY   = .001492
INCLINATION    = 97.6538
RA_OF_ASC_NODE = 72.6083
ARG_OF_PERICENTER = 231.1760
MEAN_ANOMALY   = 128.8134

EPHEMERIS_TYPE = 0
CLASSIFICATION_TYPE = U
NORAD_CAT_ID   = 66999
ELEMENT_SET_NO = 999
REV_AT_EPOCH   = 241
BSTAR          = .42687E-3
MEAN_MOTION_DOT = .6015E-4
MEAN_MOTION_DDOT = 0

CCSDS_OMM_VERS = 2.0
CREATION_DATE  = 
ORIGINATOR     = 

OBJECT_NAME    = 2025-292H
OBJECT_ID      = 2025-292H
CENTER_NAME    = EARTH
REF_FRAME      = TEME
TIME_SYSTEM    = UTC
MEAN_ELEMENT_THEORY = SGP/SGP4

EPOCH          = 2025-12-26T04:05:16.853280
MEAN_MOTION    = 15.05061812
ECCENTRICITY   = .001488
INCLINATION    = 97.6550
RA_OF_ASC_NODE = 72.6109
ARG_OF_PERICENTER = 231.0797
MEAN_ANOMALY   = 128.9103

EPHEMERIS_TYPE = 0
CLASSIFICATION_TYPE = U
NORAD_CAT_ID   = 67000
ELEMENT_SET_NO = 999
REV_AT_EPOCH   = 228
BSTAR          = .51969E-3
MEAN_MOTION_DOT = .7345E-4
MEAN_MOTION_DDOT = 0

